NORAD_CAT_ID,OBJECT_NAME,OBJECT_TYPE,EPOCH,MEAN_MOTION,ECCENTRICITY,INCLINATION,RA_OF_ASC_NODE,ARG_OF_PERICENTER,MEAN_ANOMALY,BSTAR,MEAN_MOTION_DOT,MEAN_MOTION_DDOT,TLE_LINE0,TLE_LINE1,TLE_LINE2,SEMIMAJOR_AXIS,PERIOD,APOGEE,PERIGEE,DECAYED
49458.0,STARLINK-3156,PAYLOAD,2022-04-04 14:00:01,15.08817467,0.0002466,53.2164,181.5494,28.5908,23.0184,0.0014282,0.00022501,0.0,0 STARLINK-3156,1 49458U 21104BC  22094.58334491  .00022501  00000-0  14282-2 0  9991,2 49458  53.2164 181.5494 0002466  28.5908  23.0184 15.08817467  3621,6917.949000000001,95.439,541.52,538.1080000000002,0.0
49458.0,STARLINK-3156,PAYLOAD,2022-04-04 20:00:01,15.08858053,0.000245,53.2161,180.4265,27.1225,303.1738,-0.00029201,-4.935e-05,0.0,0 STARLINK-3156,1 49458U 21104BC  22094.83334491 -.00004935  00000-0 -29201-3 0  9990,2 49458  53.2161 180.4265 0002450  27.1225 303.1738 15.08858053 23245,6917.825,95.436,541.385,537.995,0.0
49458.0,STARLINK-3156,PAYLOAD,2022-04-04 22:00:00,15.08862446,0.0002404,53.2163,180.0518,28.5698,34.6283,-0.00060697,-9.942e-05,0.0,0 STARLINK-3156,1 49458U 21104BC  22094.91667824 -.00009942  00000-0 -60697-3 0  9995,2 49458  53.2163 180.0518 0002404  28.5698  34.6283 15.08862446  3602,6917.812,95.436,541.34,538.014,0.0
49458.0,STARLINK-3156,PAYLOAD,2022-04-05 14:00:01,15.0884439,0.0002588,53.2164,177.0601,31.011,55.4906,0.0011352,0.00017827,0.0,0 STARLINK-3156,1 49458U 21104BC  22095.58335648  .00017827  00000-0  11352-2 0  9997,2 49458  53.2164 177.0601 0002588  31.0110  55.4906 15.08844390  3570,6917.8669999999975,95.437,541.5219999999998,537.942,0.0
49458.0,STARLINK-3156,PAYLOAD,2022-04-05 22:00:00,15.08877305,0.0002426,53.2165,175.5625,29.2841,68.762,-0.0057613,-0.00090922,0.0,0 STARLINK-3156,1 49458U 21104BC  22095.91667824 -.00090922  00000-0 -57613-2 0  9997,2 49458  53.2165 175.5625 0002426  29.2841  68.7620 15.08877305  3629,6917.766,95.435,541.31,537.953,0.0
49458.0,STARLINK-3156,PAYLOAD,2022-04-06 06:00:02,15.08821327,0.0002311,53.2167,174.0655,29.7378,79.9744,0.0012577,0.00019775,0.0,0 STARLINK-3156,1 49458U 21104BC  22096.25002315  .00019775  00000-0  12577-2 0  9998,2 49458  53.2167 174.0655 0002311  29.7378  79.9744 15.08821327 23469,6917.937,95.439,541.401,538.2040000000002,0.0
49458.0,STARLINK-3156,PAYLOAD,2022-04-06 14:00:01,15.08811779,0.000254,53.2167,172.571,27.1114,94.115,0.0022273,0.00035311,0.0,0 STARLINK-3156,1 49458U 21104BC  22096.58334491  .00035311  00000-0  22273-2 0  9995,2 49458  53.2167 172.5710 0002540  27.1114  94.1150 15.08811779  3602,6917.967,95.439,541.589,538.0740000000002,0.0
49458.0,STARLINK-3156,PAYLOAD,2022-04-06 22:00:00,15.088477,0.0002383,53.2165,171.0733,28.014,104.7921,-0.00054174,-8.902e-05,0.0,0 STARLINK-3156,1 49458U 21104BC  22096.91667824 -.00008902  00000-0 -54174-3 0  9995,2 49458  53.2165 171.0733 0002383  28.0140 104.7921 15.08847700  3565,6917.857,95.437,541.37,538.073,0.0
49458.0,STARLINK-3156,PAYLOAD,2022-04-07 04:00:00,15.08835923,0.0002308,53.2166,169.9504,30.5463,20.9614,0.0028165,0.00044818,0.0,0 STARLINK-3156,1 49458U 21104BC  22097.16667824  .00044818  00000-0  28165-2 0  9997,2 49458  53.2166 169.9504 0002308  30.5463  20.9614 15.08835923 23600,6917.893,95.438,541.355,538.161,0.0
49458.0,STARLINK-3156,PAYLOAD,2022-04-07 14:00:01,15.08859094,0.0002533,53.2166,168.082,26.5618,129.4634,-0.00067167,-0.00010968,0.0,0 STARLINK-3156,1 49458U 21104BC  22097.58334491 -.00010968  00000-0 -67167-3 0  9991,2 49458  53.2166 168.0820 0002533  26.5618 129.4634 15.08859094  3608,6917.821999999999,95.436,541.439,537.935,0.0
49458.0,STARLINK-3156,PAYLOAD,2022-04-07 20:00:01,15.08875667,0.000241,53.2162,166.9586,25.2323,49.5069,-0.0044557,-0.00070579,0.0,0 STARLINK-3156,1 49458U 21104BC  22097.83334491 -.00070579  00000-0 -44557-2 0  9990,2 49458  53.2162 166.9586 0002410  25.2323  49.5069 15.08875667 23704,6917.771,95.435,541.304,537.969,0.0
49458.0,STARLINK-3156,PAYLOAD,2022-04-07 22:00:00,15.08859659,0.0002304,53.2164,166.584,24.798,142.8514,-0.002756,-0.00043908,0.0,0 STARLINK-3156,1 49458U 21104BC  22097.91667824 -.00043908  00000-0 -27560-2 0  9999,2 49458  53.2164 166.5840 0002304  24.7980 142.8514 15.08859659  3567,6917.82,95.436,541.279,538.091,0.0
49458.0,STARLINK-3156,PAYLOAD,2022-04-08 04:00:00,15.08823736,0.0002221,53.2165,165.4612,26.5444,59.8094,0.0025935,0.00041212,0.0,0 STARLINK-3156,1 49458U 21104BC  22098.16667824  .00041212  00000-0  25935-2 0  9995,2 49458  53.2165 165.4612 0002221  26.5444  59.8094 15.08823736 23756,6917.93,95.439,541.332,538.259,0.0
49458.0,STARLINK-3156,PAYLOAD,2022-04-08 14:00:03,15.08829466,0.0002508,53.2164,163.5928,24.5608,166.4122,0.0023909,0.00037959,0.0,0 STARLINK-3156,1 49458U 21104BC  22098.58336806  .00037959  00000-0  23909-2 0  9996,2 49458  53.2164 163.5928 0002508  24.5608 166.4122 15.08829466  3607,6917.913000000001,95.438,541.513,538.043,0.0
49458.0,STARLINK-3156,PAYLOAD,2022-04-08 20:00:01,15.08870875,0.0002429,53.216,162.4695,26.4099,83.1296,-0.003966,-0.00062913,0.0,0 STARLINK-3156,1 49458U 21104BC  22098.83334491 -.00062913  00000-0 -39660-2 0  9993,2 49458  53.2160 162.4695 0002429  26.4099  83.1296 15.08870875 23855,6917.786,95.436,541.331,537.971,0.0
49458.0,STARLINK-3156,PAYLOAD,2022-04-08 22:00:00,15.08844615,0.0002358,53.2161,162.095,27.0645,175.3857,-0.0012886,-0.00020741,0.0,0 STARLINK-3156,1 49458U 21104BC  22098.91667824 -.00020741  00000-0 -12886-2 0  9995,2 49458  53.2161 162.0950 0002358  27.0645 175.3857 15.08844615  3578,6917.866,95.437,541.363,538.1,0.0
49458.0,STARLINK-3156,PAYLOAD,2022-04-09 04:00:00,15.08831435,0.0002312,53.2162,160.9723,30.82800000000001,90.3108,0.0014243,0.00022447,0.0,0 STARLINK-3156,1 49458U 21104BC  22099.16667824  .00022447  00000-0  14243-2 0  9995,2 49458  53.2162 160.9723 0002312  30.8280  90.3108 15.08831435 23901,6917.906999999997,95.438,541.371,538.172,0.0
49458.0,STARLINK-3156,PAYLOAD,2022-04-09 12:00:00,15.08827858,0.000251,53.2161,159.4779,27.3843,105.3458,-0.0016101,-0.00025815,0.0,0 STARLINK-3156,1 49458U 21104BC  22099.50001157 -.00025815  00000-0 -16101-2 0  9993,2 49458  53.2161 159.4779 0002510  27.3843 105.3458 15.08827858 23954,6917.918000000002,95.438,541.519,538.0459999999998,0.0
49458.0,STARLINK-3156,PAYLOAD,2022-04-09 14:00:01,15.08798476,0.0002548,53.2161,159.10399999999996,26.0591,199.5732,0.0020094,0.00031801,0.0,0 STARLINK-3156,1 49458U 21104BC  22099.58334491  .00031801  00000-0  20094-2 0  9997,2 49458  53.2161 159.1040 0002548  26.0591 199.5732 15.08798476  3602,6918.007,95.44,541.635,538.11,0.0
49458.0,STARLINK-3156,PAYLOAD,2022-04-09 20:00:01,15.08836664,0.0002432,53.2158,157.9805,26.8133,117.4932,-0.0011394,-0.00018375,0.0,0 STARLINK-3156,1 49458U 21104BC  22099.83334491 -.00018375  00000-0 -11394-2 0  9991,2 49458  53.2158 157.9805 0002432  26.8133 117.4932 15.08836664 24005,6917.891,95.438,541.438,538.073,0.0
49458.0,STARLINK-3156,PAYLOAD,2022-04-09 22:00:00,15.08822299,0.0002373,53.2159,157.606,27.2616,209.945,0.00084388,0.00013161,0.0,0 STARLINK-3156,1 49458U 21104BC  22099.91667824  .00013161  00000-0  84388-3 0  9999,2 49458  53.2159 157.6060 0002373  27.2616 209.9450 15.08822299  3605,6917.934,95.439,541.441,538.158,0.0
49458.0,STARLINK-3156,PAYLOAD,2022-04-10 12:00:00,15.08833355,0.0002582,53.216,154.989,27.4808,140.0036,0.0011543,0.00018127,0.0,0 STARLINK-3156,1 49458U 21104BC  22100.50001157  .00018127  00000-0  11543-2 0  9997,2 49458  53.2160 154.9890 0002582  27.4808 140.0036 15.08833355 24103,6917.901,95.438,541.552,537.979,0.0
49458.0,STARLINK-3156,PAYLOAD,2022-04-10 14:00:01,15.08828225,0.00026,53.216,154.6151,26.4761,233.9089,0.0020937,0.00033181,0.0,0 STARLINK-3156,1 49458U 21104BC  22100.58334491  .00033181  00000-0  20937-2 0  9999,2 49458  53.2160 154.6151 0002600  26.4761 233.9089 15.08828225  3600,6917.916,95.438,541.58,537.9830000000002,0.0
49458.0,STARLINK-3156,PAYLOAD,2022-04-10 22:00:00,15.08836747,0.0002425,53.216,153.1169,26.9905,245.0113,0.00070407,0.00010934,0.0,0 STARLINK-3156,1 49458U 21104BC  22100.91667824  .00010934  00000-0  70407-3 0  9994,2 49458  53.2160 153.1169 0002425  26.9905 245.0113 15.08836747  3603,6917.89,95.438,541.433,538.078,0.0
49458.0,STARLINK-3156,PAYLOAD,2022-04-11 12:00:00,15.08842179,0.0002631,53.2162,150.4999,25.9192,176.3676,-0.00027687,-4.693e-05,0.0,0 STARLINK-3156,1 49458U 21104BC  22101.50001157 -.00004693  00000-0 -27687-3 0  9990,2 49458  53.2162 150.4999 0002631  25.9192 176.3676 15.08842179 24252,6917.874,95.437,541.559,537.919,0.0
49458.0,STARLINK-3156,PAYLOAD,2022-04-11 14:00:01,15.08839892,0.000262,53.2161,150.1259,24.4161,270.7714,-0.00026033,-4.429e-05,0.0,0 STARLINK-3156,1 49458U 21104BC  22101.58334491 -.00004429  00000-0 -26033-3 0  9999,2 49458  53.2161 150.1259 0002620  24.4161 270.7714 15.08839892  3601,6917.880999999999,95.438,541.558,537.933,0.0
49458.0,STARLINK-3156,PAYLOAD,2022-04-11 22:00:00,15.08805093,0.0002412,53.2163,148.6277,23.413,283.3779,-0.00059615,-9.755e-05,0.0,0 STARLINK-3156,1 49458U 21104BC  22101.91667824 -.00009755  00000-0 -59615-3 0  9994,2 49458  53.2163 148.6277 0002412  23.4130 283.3779 15.08805093  3594,6917.986999999999,95.44,541.521,538.183,0.0
49458.0,STARLINK-3156,PAYLOAD,2022-04-12 04:00:00,15.08804875,0.0002396,53.2165,147.5055,25.2612,200.1864,0.00038975,5.914e-05,0.0,0 STARLINK-3156,1 49458U 21104BC  22102.16667824  .00005914  00000-0  38975-3 0  9999,2 49458  53.2165 147.5055 0002396  25.2612 200.1864 15.08804875 24350,6917.988,95.44,541.51,538.195,0.0
49458.0,STARLINK-3156,PAYLOAD,2022-04-12 14:00:01,15.08784531,0.0002683,53.2164,145.6369,22.4076,307.4827,0.0029511,0.00046922,0.0,0 STARLINK-3156,1 49458U 21104BC  22102.58334491  .00046922  00000-0  29511-2 0  9995,2 49458  53.2164 145.6369 0002683  22.4076 307.4827 15.08784531  3597,6918.05,95.441,541.771,538.059,0.0
